CCSDS_OMM_VERS = 2.0
CREATION_DATE  = 
ORIGINATOR     = 

OBJECT_NAME    = RASSVET-3 14
OBJECT_ID      = 2026-061P
CENTER_NAME    = EARTH
REF_FRAME      = TEME
TIME_SYSTEM    = UTC
MEAN_ELEMENT_THEORY = SGP/SGP4

EPOCH          = 2026-04-03T11:45:39.474144
MEAN_MOTION    = 15.89236318
ECCENTRICITY   = .002552
INCLINATION    = 82.2966
RA_OF_ASC_NODE = 96.5020
ARG_OF_PERICENTER = 33.8001
MEAN_ANOMALY   = 326.4891

EPHEMERIS_TYPE = 0
CLASSIFICATION_TYPE = U
NORAD_CAT_ID   = 68373
ELEMENT_SET_NO = 999
REV_AT_EPOCH   = 171
BSTAR          = .25123E-3
MEAN_MOTION_DOT = .74304E-3
MEAN_MOTION_DDOT = .77741E-6

CCSDS_OMM_VERS = 2.0
CREATION_DATE  = 
ORIGINATOR     = 

OBJECT_NAME    = RASSVET-3 15
OBJECT_ID      = 2026-061Q
CENTER_NAME    = EARTH
REF_FRAME      = TEME
TIME_SYSTEM    = UTC
MEAN_ELEMENT_THEORY = SGP/SGP4

EPOCH          = 2026-04-03T11:45:33.468480
MEAN_MOTION    = 15.89247600
ECCENTRICITY   = .0025308
INCLINATION    = 82.2967
RA_OF_ASC_NODE = 96.5021
ARG_OF_PERICENTER = 33.8516
MEAN_ANOMALY   = 326.4364

EPHEMERIS_TYPE = 0
CLASSIFICATION_TYPE = U
NORAD_CAT_ID   = 68374
ELEMENT_SET_NO = 999
REV_AT_EPOCH   = 171
BSTAR          = .24787E-3
MEAN_MOTION_DOT = .73324E-3
MEAN_MOTION_DDOT = .72765E-6

CCSDS_OMM_VERS = 2.0
CREATION_DATE  = 
ORIGINATOR     = 

OBJECT_NAME    = RASSVET-3 16
OBJECT_ID      = 2026-061R
CENTER_NAME    = EARTH
REF_FRAME      = TEME
TIME_SYSTEM    = UTC
MEAN_ELEMENT_THEORY = SGP/SGP4

EPOCH          = 2026-04-03T11:43:09.820704
MEAN_MOTION    = 15.89966550
ECCENTRICITY   = .0024435
INCLINATION    = 82.2956
RA_OF_ASC_NODE = 96.4985
ARG_OF_PERICENTER = 35.4529
MEAN_ANOMALY   = 324.8361

EPHEMERIS_TYPE = 0
CLASSIFICATION_TYPE = U
NORAD_CAT_ID   = 68375
ELEMENT_SET_NO = 999
REV_AT_EPOCH   = 171
BSTAR          = .41946E-3
MEAN_MOTION_DOT = .128172E-2
MEAN_MOTION_DDOT = .46295E-5

CCSDS_OMM_VERS = 2.0
CREATION_DATE  = 
ORIGINATOR     = 

OBJECT_NAME    = SUPERVIEW NEO-2 OBJECT A
OBJECT_ID      = 2026-062A
CENTER_NAME    = EARTH
REF_FRAME      = TEME
TIME_SYSTEM    = UTC
MEAN_ELEMENT_THEORY = SGP/SGP4

EPOCH          = 2026-04-03T13:14:14.430624
MEAN_MOTION    = 15.20615558
ECCENTRICITY   = .0006448
INCLINATION    = 97.4363
RA_OF_ASC_NODE = 101.9173
ARG_OF_PERICENTER = 234.3357
MEAN_ANOMALY   = 125.7279

EPHEMERIS_TYPE = 0
CLASSIFICATION_TYPE = U
NORAD_CAT_ID   = 68377
ELEMENT_SET_NO = 999
REV_AT_EPOCH   = 131
BSTAR          = .2495E-3
MEAN_MOTION_DOT = .5405E-4
MEAN_MOTION_DDOT = 0

CCSDS_OMM_VERS = 2.0
CREATION_DATE  = 
ORIGINATOR     = 

OBJECT_NAME    = SUPERVIEW NEO-2 OBJECT B
OBJECT_ID      = 2026-062B
CENTER_NAME    = EARTH
REF_FRAME      = TEME
TIME_SYSTEM    = UTC
MEAN_ELEMENT_THEORY = SGP/SGP4

EPOCH          = 2026-03-31T17:19:08.069952
MEAN_MOTION    = 15.20585060
ECCENTRICITY   = .00089524
INCLINATION    = 97.4347
RA_OF_ASC_NODE = 99.1253
ARG_OF_PERICENTER = 250.4427
MEAN_ANOMALY   = 109.5842

EPHEMERIS_TYPE = 0
CLASSIFICATION_TYPE = U
NORAD_CAT_ID   = 68378
ELEMENT_SET_NO = 999
REV_AT_EPOCH   = 88
BSTAR          = .19790811E-3
MEAN_MOTION_DOT = .427E-4
MEAN_MOTION_DDOT = 0

CCSDS_OMM_VERS = 2.0
CREATION_DATE  = 
ORIGINATOR     = 

OBJECT_NAME    = CZ-2D R/B
OBJECT_ID      = 2026-062C
CENTER_NAME    = EARTH
REF_FRAME      = TEME
TIME_SYSTEM    = UTC
MEAN_ELEMENT_THEORY = SGP/SGP4

EPOCH          = 2026-04-03T13:22:41.998656
MEAN_MOTION    = 15.31191915
ECCENTRICITY   = .0052805
INCLINATION    = 97.4980
RA_OF_ASC_NODE = 101.9269
ARG_OF_PERICENTER = 31.7635
MEAN_ANOMALY   = 328.6772

EPHEMERIS_TYPE = 0
CLASSIFICATION_TYPE = U
NORAD_CAT_ID   = 68379
ELEMENT_SET_NO = 999
REV_AT_EPOCH   = 132
BSTAR          = .52895E-3
MEAN_MOTION_DOT = .16577E-3
MEAN_MOTION_DDOT = 0

CCSDS_OMM_VERS = 2.0
CREATION_DATE  = 
ORIGINATOR     = 

OBJECT_NAME    = STARLINK-36296
OBJECT_ID      = 2026-063A
CENTER_NAME    = EARTH
REF_FRAME      = TEME
TIME_SYSTEM    = UTC
MEAN_ELEMENT_THEORY = SGP/SGP4

EPOCH          = 2026-04-02T18:00:02.000160
MEAN_MOTION    = 15.97982213
ECCENTRICITY   = .00015083
INCLINATION    = 97.2834
RA_OF_ASC_NODE = 233.5389
ARG_OF_PERICENTER = 67.8630
MEAN_ANOMALY   = 74.8208

EPHEMERIS_TYPE = 0
CLASSIFICATION_TYPE = U
NORAD_CAT_ID   = 68380
ELEMENT_SET_NO = 999
REV_AT_EPOCH   = 232
BSTAR          = -.38470053E-2
MEAN_MOTION_DOT = -.1726598E-1
MEAN_MOTION_DDOT = .88222495E-3

CCSDS_OMM_VERS = 2.0
CREATION_DATE  = 
ORIGINATOR     = 

OBJECT_NAME    = STARLINK-37111
OBJECT_ID      = 2026-063B
CENTER_NAME    = EARTH
REF_FRAME      = TEME
TIME_SYSTEM    = UTC
MEAN_ELEMENT_THEORY = SGP/SGP4

EPOCH          = 2026-04-02T18:00:02.000160
MEAN_MOTION    = 15.98104329
ECCENTRICITY   = .00015717
INCLINATION    = 97.2834
RA_OF_ASC_NODE = 233.5399
ARG_OF_PERICENTER = 67.6845
MEAN_ANOMALY   = 76.8108

EPHEMERIS_TYPE = 0
CLASSIFICATION_TYPE = U
NORAD_CAT_ID   = 68381
ELEMENT_SET_NO = 999
REV_AT_EPOCH   = 232
BSTAR          = -.38168645E-2
MEAN_MOTION_DOT = -.1724681E-1
MEAN_MOTION_DDOT = .88158768E-3

CCSDS_OMM_VERS = 2.0
CREATION_DATE  = 
ORIGINATOR     = 

OBJECT_NAME    = STARLINK-36946
OBJECT_ID      = 2026-063C
CENTER_NAME    = EARTH
REF_FRAME      = TEME
TIME_SYSTEM    = UTC
MEAN_ELEMENT_THEORY = SGP/SGP4

EPOCH          = 2026-04-02T18:00:02.000160
MEAN_MOTION    = 15.98248988
ECCENTRICITY   = .00014806
INCLINATION    = 97.2827
RA_OF_ASC_NODE = 233.5405
ARG_OF_PERICENTER = 74.3083
MEAN_ANOMALY   = 72.6109

EPHEMERIS_TYPE = 0
CLASSIFICATION_TYPE = U
NORAD_CAT_ID   = 68382
ELEMENT_SET_NO = 999
REV_AT_EPOCH   = 232
BSTAR          = -.38221941E-2
MEAN_MOTION_DOT = -.1740716E-1
MEAN_MOTION_DDOT = .89842052E-3

CCSDS_OMM_VERS = 2.0
CREATION_DATE  = 
ORIGINATOR     = 

OBJECT_NAME    = STARLINK-37121
OBJECT_ID      = 2026-063D
CENTER_NAME    = EARTH
REF_FRAME      = TEME
TIME_SYSTEM    = UTC
MEAN_ELEMENT_THEORY = SGP/SGP4

EPOCH          = 2026-04-02T18:00:02.000160
MEAN_MOTION    = 15.98510861
ECCENTRICITY   = .00016076
INCLINATION    = 97.2829
RA_OF_ASC_NODE = 233.5429
ARG_OF_PERICENTER = 66.6097
MEAN_ANOMALY   = 84.9503

EPHEMERIS_TYPE = 0
CLASSIFICATION_TYPE = U
NORAD_CAT_ID   = 68383
ELEMENT_SET_NO = 999
REV_AT_EPOCH   = 232
BSTAR          = -.37639177E-2
MEAN_MOTION_DOT = -.1739258E-1
MEAN_MOTION_DDOT = .89964098E-3

CCSDS_OMM_VERS = 2.0
CREATION_DATE  = 
ORIGINATOR     = 

OBJECT_NAME    = STARLINK-37137
OBJECT_ID      = 2026-063E
CENTER_NAME    = EARTH
REF_FRAME      = TEME
TIME_SYSTEM    = UTC
MEAN_ELEMENT_THEORY = SGP/SGP4

EPOCH          = 2026-04-02T18:00:02.000160
MEAN_MOTION    = 15.98372709
ECCENTRICITY   = .00016389
INCLINATION    = 97.2831
RA_OF_ASC_NODE = 233.5416
ARG_OF_PERICENTER = 66.3758
MEAN_ANOMALY   = 82.6105

EPHEMERIS_TYPE = 0
CLASSIFICATION_TYPE = U
NORAD_CAT_ID   = 68384
ELEMENT_SET_NO = 999
REV_AT_EPOCH   = 232
BSTAR          = -.37776827E-2
MEAN_MOTION_DOT = -.1732404E-1
MEAN_MOTION_DDOT = .89164231E-3

CCSDS_OMM_VERS = 2.0
CREATION_DATE  = 
ORIGINATOR     = 

OBJECT_NAME    = STARLINK-37128
OBJECT_ID      = 2026-063F
CENTER_NAME    = EARTH
REF_FRAME      = TEME
TIME_SYSTEM    = UTC
MEAN_ELEMENT_THEORY = SGP/SGP4

EPOCH          = 2026-04-02T18:00:02.000160
MEAN_MOTION    = 15.98657525
ECCENTRICITY   = .0001616
INCLINATION    = 97.2831
RA_OF_ASC_NODE = 233.5440
ARG_OF_PERICENTER = 74.3986
MEAN_ANOMALY   = 79.7580

EPHEMERIS_TYPE = 0
CLASSIFICATION_TYPE = U
NORAD_CAT_ID   = 68385
ELEMENT_SET_NO = 999
REV_AT_EPOCH   = 227
BSTAR          = -.37772821E-2
MEAN_MOTION_DOT = -.1759455E-1
MEAN_MOTION_DDOT = .92081284E-3

